<?xml version="1.0" encoding="UTF-8"?>
<kml xmlns="http://www.opengis.net/kml/2.2">
  <Document>
    <name>EW Event Log</name>
    <description>GPS Denial Zone — ArduPilot SITL Phase 4</description>
    <Style id="denial">
      <IconStyle>
        <color>ff0000ff</color>
        <scale>1.2</scale>
        <Icon><href>http://maps.google.com/mapfiles/kml/shapes/placemark_circle.png</href></Icon>
      </IconStyle>
    </Style>
    <Style id="recovery">
      <IconStyle>
        <color>ff00ff00</color>
        <scale>1.2</scale>
        <Icon><href>http://maps.google.com/mapfiles/kml/shapes/placemark_circle.png</href></Icon>
      </IconStyle>
    </Style>
    <Style id="denial_zone">
      <LineStyle><color>ff0000ff</color><width>2</width></LineStyle>
      <PolyStyle><color>660000ff</color><fill>1</fill><outline>1</outline></PolyStyle>
    </Style>
    <Style id="gps_track">
      <LineStyle><color>ff00ff00</color><width>3</width></LineStyle>
      <PolyStyle><fill>0</fill></PolyStyle>
    </Style>
    <Style id="denied_track">
      <LineStyle><color>ff0000ff</color><width>3</width></LineStyle>
      <PolyStyle><fill>0</fill></PolyStyle>
    </Style>
    <Placemark>
      <name>GPS DENIAL ONSET</name>
      <description>Time: 2026-04-23T16:09:11.641&#10;EKF flags: 33663&#10;pos_horiz_var: 0.3457&#10;vel_var: 75.1133&#10;oscillations: 0&#10;heading: 353.0°&#10;alt AMSL: 604.1m</description>
      <styleUrl>#denial</styleUrl>
      <Point>
        <altitudeMode>relativeToGround</altitudeMode>
        <coordinates>149.1642867,-35.3615714,20.002</coordinates>
      </Point>
    </Placemark>
    <Placemark>
      <name>GPS Denial Zone</name>
      <styleUrl>#denial_zone</styleUrl>
      <Polygon>
        <altitudeMode>clampToGround</altitudeMode>
        <outerBoundaryIs><LinearRing><coordinates>
          149.1642867,-35.361121739197046,0
          149.16467658584972,-35.361253441797,0
          149.16483808185646,-35.3615714,0
          149.16467658584972,-35.36188935820301,0
          149.1642867,-35.36202106080296,0
          149.16389681415026,-35.36188935820301,0
          149.16373531814352,-35.3615714,0
          149.16389681415026,-35.361253441797,0
          149.1642867,-35.361121739197046,0
        </coordinates></LinearRing></outerBoundaryIs>
      </Polygon>
    </Placemark>
    <Placemark>
      <name>GPS Track (Lane 0)</name>
      <styleUrl>#gps_track</styleUrl>
      <LineString>
        <altitudeMode>relativeToGround</altitudeMode>
        <coordinates>
          149.1652374,-35.3632621,0.003
          149.1652374,-35.3632621,0.003
          149.1652374,-35.3632621,0.003
          149.1652374,-35.3632621,0.015
          149.1652374,-35.3632621,0.062
          149.1652374,-35.3632621,0.149
          149.1652374,-35.3632621,0.411
          149.1652374,-35.3632621,0.717
          149.1652374,-35.3632621,1.039
          149.1652374,-35.3632621,1.415
          149.1652374,-35.3632621,1.854
          149.1652374,-35.3632621,2.39
          149.1652374,-35.3632621,2.945
          149.1652374,-35.3632621,3.552
          149.1652374,-35.3632621,4.183
          149.1652375,-35.3632621,4.818
          149.1652375,-35.3632621,5.45
          149.1652375,-35.3632621,6.077
          149.1652375,-35.3632622,6.698
          149.1652376,-35.3632622,7.32
          149.1652376,-35.3632622,7.942
          149.1652376,-35.3632622,8.563
          149.1652376,-35.3632622,9.185
          149.1652376,-35.3632622,9.808
          149.1652376,-35.3632622,10.431
          149.1652376,-35.3632622,11.054
          149.1652376,-35.3632622,11.676
          149.1652376,-35.3632622,12.301
          149.1652376,-35.3632622,12.928
          149.1652376,-35.3632622,13.545
          149.1652376,-35.3632622,14.166
          149.1652376,-35.3632622,14.79
          149.1652376,-35.3632622,15.416
          149.1652375,-35.3632622,16.042
          149.1652375,-35.3632622,16.668
          149.1652375,-35.3632622,17.295
          149.1652375,-35.3632622,17.927
          149.1652375,-35.3632622,18.548
          149.1652375,-35.3632622,19.125
          149.1652375,-35.3632622,19.638
          149.1652375,-35.3632622,20.08
          149.1652375,-35.3632622,20.451
          149.1652375,-35.3632622,20.753
          149.1652375,-35.3632622,20.989
          149.1652375,-35.3632622,21.164
          149.1652375,-35.3632622,21.276
          149.1652375,-35.3632622,21.269
          149.1652375,-35.3632622,21.079
          149.1652375,-35.3632621,20.799
          149.1652375,-35.3632618,20.533
          149.1652375,-35.3632611,20.327
          149.1652374,-35.3632599,20.19
          149.1652372,-35.3632581,20.11
          149.1652369,-35.3632557,20.069
          149.1652365,-35.3632525,20.052
          149.1652361,-35.3632486,20.046
          149.1652355,-35.3632439,20.044
          149.1652349,-35.3632388,20.043
          149.1652342,-35.3632331,20.04
          149.1652334,-35.3632272,20.035
          149.1652327,-35.3632211,20.03
          149.1652319,-35.3632147,20.026
          149.1652312,-35.3632084,20.022
          149.1652305,-35.3632021,20.019
          149.1652298,-35.3631957,20.017
          149.1652291,-35.3631893,20.016
          149.165227,-35.3631702,20.013
          149.1652255,-35.363157,20.011
          149.165224,-35.3631437,20.008
          149.1652225,-35.3631304,20.006
          149.165221,-35.3631171,20.003
          149.1652195,-35.3631038,20.002
          149.1652179,-35.3630905,20.0
          149.1652164,-35.3630772,19.998
          149.1652148,-35.3630638,19.997
          149.1652132,-35.3630505,19.997
          149.1652117,-35.3630372,19.997
          149.1652102,-35.3630239,19.997
          149.1652087,-35.3630106,19.997
          149.1652071,-35.3629972,19.995
          149.1652056,-35.3629838,19.994
          149.165204,-35.3629703,19.994
          149.1652025,-35.3629569,19.995
          149.1652009,-35.3629435,19.996
          149.1651994,-35.3629301,19.997
          149.1651978,-35.3629167,19.997
          149.1651963,-35.3629033,19.997
          149.1651948,-35.3628899,19.997
          149.1651932,-35.3628765,19.997
          149.1651917,-35.3628632,19.997
          149.1651901,-35.3628498,19.996
          149.1651886,-35.362836,19.995
          149.1651878,-35.3628293,19.995
          149.165187,-35.3628225,19.996
          149.1651863,-35.3628158,19.996
          149.1651855,-35.3628091,19.996
          149.1651847,-35.3628024,19.997
          149.165184,-35.3627956,19.997
          149.1651832,-35.3627889,19.997
          149.1651824,-35.3627823,19.997
          149.1651816,-35.3627756,19.997
          149.1651809,-35.3627688,19.997
          149.1651801,-35.3627621,19.997
          149.1651793,-35.3627555,19.997
          149.1651785,-35.3627488,19.997
          149.1651778,-35.3627421,19.997
          149.165177,-35.3627354,19.997
          149.1651763,-35.3627287,19.997
          149.1651755,-35.362722,19.997
          149.1651747,-35.3627152,19.997
          149.1651739,-35.3627085,19.997
          149.1651732,-35.3627018,19.997
          149.1651724,-35.362695,19.997
          149.1651716,-35.3626883,19.997
          149.1651708,-35.3626816,19.997
          149.1651701,-35.3626749,19.997
          149.1651693,-35.3626682,19.997
          149.1651685,-35.3626615,19.997
          149.1651678,-35.3626548,19.997
          149.165167,-35.3626481,19.997
          149.1651662,-35.3626413,19.997
          149.1651654,-35.3626346,19.997
          149.1651647,-35.362628,19.997
          149.1651639,-35.3626213,19.997
          149.1651631,-35.3626146,19.997
          149.1651624,-35.362608,19.997
          149.1651616,-35.3626012,19.998
          149.1651609,-35.3625945,19.999
          149.1651601,-35.3625878,20.0
          149.1651593,-35.3625811,20.001
          149.1651585,-35.3625744,20.002
          149.1651578,-35.3625677,20.002
          149.165157,-35.362561,20.001
          149.1651562,-35.3625543,19.999
          149.1651554,-35.3625475,19.998
          149.1651547,-35.3625408,19.997
          149.1651539,-35.3625341,19.997
          149.1651531,-35.3625273,19.997
          149.1651524,-35.3625206,19.997
          149.1651516,-35.3625139,19.997
          149.1651508,-35.3625072,19.997
          149.16515,-35.3625005,19.997
          149.1651493,-35.3624938,19.997
          149.1651485,-35.3624871,19.997
          149.1651477,-35.3624804,19.998
          149.165147,-35.3624738,20.0
          149.1651462,-35.3624671,20.001
          149.1651454,-35.3624604,20.002
          149.1651447,-35.3624537,20.002
          149.1651439,-35.3624471,20.002
          149.1651431,-35.3624403,20.0
          149.1651424,-35.3624336,19.999
          149.1651416,-35.3624268,19.998
          149.1651408,-35.3624201,19.997
          149.16514,-35.3624133,19.997
          149.1651393,-35.3624066,19.997
          149.1651385,-35.3623999,19.997
          149.1651377,-35.3623932,19.997
          149.165137,-35.3623865,19.997
          149.1651362,-35.3623797,19.997
          149.1651354,-35.362373,19.997
          149.1651346,-35.3623663,19.998
          149.1651339,-35.3623596,20.0
          149.1651331,-35.3623529,20.001
          149.1651323,-35.3623462,20.002
          149.1651316,-35.3623396,20.002
          149.1651308,-35.3623329,20.002
          149.16513,-35.3623262,20.001
          149.1651292,-35.3623195,19.999
          149.1651285,-35.3623128,19.998
          149.1651277,-35.3623061,19.997
          149.165127,-35.3622994,19.997
          149.1651262,-35.3622927,19.997
          149.1651254,-35.362286,19.997
          149.1651247,-35.3622793,19.997
          149.1651239,-35.3622726,19.997
          149.1651231,-35.3622658,19.997
          149.1651223,-35.3622591,19.998
          149.1651216,-35.3622524,20.0
          149.1651208,-35.3622457,20.001
          149.16512,-35.3622389,20.002
          149.1651192,-35.3622322,20.002
          149.1651185,-35.3622256,20.002
          149.1651177,-35.3622189,20.001
          149.1651169,-35.3622121,20.0
          149.1651162,-35.3622054,19.998
          149.1651154,-35.3621988,19.997
          149.1651146,-35.3621921,19.997
          149.1651139,-35.3621854,19.997
          149.1651131,-35.3621787,19.997
          149.1651123,-35.362172,19.997
          149.1651116,-35.3621653,19.997
          149.1651108,-35.3621585,19.998
          149.16511,-35.3621518,19.999
          149.1651085,-35.3621387,20.001
          149.165107,-35.3621252,20.002
          149.1651054,-35.3621118,20.0
          149.1651039,-35.3620984,19.998
          149.1651023,-35.362085,19.997
          149.1651008,-35.3620716,19.997
          149.1650993,-35.3620583,19.997
          149.1650977,-35.3620449,20.0
          149.1650962,-35.3620315,20.002
          149.1650946,-35.3620177,20.002
          149.1650938,-35.362011,20.002
          149.1650931,-35.3620043,20.001
          149.1650923,-35.3619976,19.999
          149.1650915,-35.3619908,19.998
          149.1650908,-35.3619841,19.997
          149.16509,-35.3619774,19.997
          149.1650892,-35.3619706,19.997
          149.1650885,-35.3619639,19.997
          149.1650877,-35.3619572,19.997
          149.1650869,-35.3619505,19.998
          149.1650861,-35.3619438,19.999
          149.1650854,-35.3619371,20.0
          149.1650846,-35.3619304,20.001
          149.1650838,-35.3619237,20.002
          149.165083,-35.3619171,20.002
          149.1650823,-35.3619104,20.002
          149.1650815,-35.3619037,20.002
          149.1650808,-35.361897,20.0
          149.16508,-35.3618904,19.999
          149.1650792,-35.3618836,19.998
          149.1650784,-35.3618769,19.997
          149.1650777,-35.3618701,19.997
          149.1650769,-35.3618634,19.997
          149.1650761,-35.3618567,19.997
          149.1650754,-35.3618499,19.997
          149.1650746,-35.3618432,19.998
          149.1650738,-35.3618365,20.0
          149.1650731,-35.3618298,20.001
          149.1650723,-35.3618231,20.002
          149.1650715,-35.3618164,20.002
          149.1650707,-35.3618097,20.002
          149.16507,-35.361803,20.002
          149.1650692,-35.3617963,20.001
          149.1650684,-35.3617896,19.999
          149.1650677,-35.3617829,19.998
          149.1650669,-35.3617762,19.997
          149.1650661,-35.3617695,19.997
          149.1650653,-35.3617628,19.997
          149.1650646,-35.3617561,19.997
          149.1650638,-35.3617494,19.997
          149.165063,-35.3617427,19.998
          149.1650623,-35.361736,19.999
          149.1650615,-35.3617293,20.001
          149.1650608,-35.3617226,20.002
          149.16506,-35.3617159,20.002
          149.1650592,-35.3617092,20.002
          149.1650584,-35.3617024,20.002
          149.1650577,-35.3616957,20.001
          149.1650569,-35.361689,19.999
          149.1650561,-35.3616823,19.998
          149.1650553,-35.3616755,19.997
          149.1650546,-35.3616688,19.997
          149.1650538,-35.3616622,19.997
          149.165053,-35.3616554,19.997
          149.1650523,-35.3616487,19.997
          149.1650515,-35.361642,19.998
          149.1650507,-35.3616354,19.999
          149.16505,-35.3616287,20.001
          149.1650492,-35.361622,20.001
          149.1650484,-35.3616153,20.002
          149.1650476,-35.3616086,20.002
          149.1650467,-35.361602,20.002
          149.1650455,-35.3615957,20.002
          149.1650437,-35.3615898,20.0
          149.1650413,-35.3615845,19.998
          149.165038,-35.3615799,19.996
          149.1650338,-35.3615762,19.996
          149.1650285,-35.3615734,19.996
          149.1650222,-35.3615715,19.998
          149.1650152,-35.3615703,19.999
          149.1650076,-35.3615697,20.001
          149.1649996,-35.3615695,20.002
          149.1649914,-35.3615695,20.002
          149.1649831,-35.3615695,20.002
          149.1649749,-35.3615696,20.0
          149.1649667,-35.3615697,19.998
          149.1649586,-35.3615698,19.997
          149.1649504,-35.3615699,19.996
          149.1649421,-35.36157,19.995
          149.1649338,-35.3615702,19.996
          149.1649254,-35.3615703,19.996
          149.1649171,-35.3615705,19.996
          149.1649087,-35.3615707,19.997
          149.1649003,-35.3615709,19.998
          149.164892,-35.361571,20.0
          149.1648836,-35.3615712,20.001
          149.1648753,-35.3615713,20.002
          149.1648669,-35.3615714,20.002
          149.1648586,-35.3615715,20.002
          149.1648503,-35.3615715,20.002
          149.1648419,-35.3615716,20.002
          149.1648336,-35.3615717,20.002
          149.1648253,-35.3615717,20.002
          149.1648171,-35.3615717,20.001
          149.1648088,-35.3615718,20.0
          149.1648005,-35.3615718,19.998
          149.1647922,-35.3615718,19.998
          149.164784,-35.3615718,19.997
          149.1647758,-35.3615718,19.997
          149.1647676,-35.3615719,19.997
          149.1647593,-35.3615719,19.999
          149.1647511,-35.3615719,20.0
          149.1647428,-35.361572,20.001
          149.1647345,-35.361572,20.002
          149.1647262,-35.3615721,20.002
          149.1647179,-35.3615721,20.002
          149.1647096,-35.3615722,20.002
          149.1647013,-35.3615722,20.002
          149.164693,-35.3615722,20.002
          149.1646847,-35.3615722,20.001
          149.1646765,-35.3615723,20.0
          149.1646682,-35.3615723,19.998
          149.1646599,-35.3615723,19.998
          149.1646516,-35.3615723,19.997
          149.1646433,-35.3615723,19.997
          149.1646351,-35.3615724,19.997
          149.1646268,-35.3615724,19.998
          149.1646186,-35.3615724,19.999
          149.1646104,-35.3615724,20.001
          149.1646021,-35.3615724,20.002
          149.1645939,-35.3615725,20.002
          149.1645856,-35.3615725,20.002
          149.1645774,-35.3615725,20.002
          149.1645692,-35.3615725,20.002
          149.1645609,-35.3615725,20.002
          149.1645526,-35.3615725,20.001
          149.1645442,-35.3615725,20.0
          149.1645359,-35.3615725,19.998
          149.1645276,-35.3615725,19.998
          149.1645193,-35.3615725,19.997
          149.164511,-35.3615726,19.997
          149.1645021,-35.3615725,19.953
          149.1644938,-35.3615725,19.96
          149.1644856,-35.3615725,19.979
          149.1644698,-35.3615725,20.002
          149.1644535,-35.3615726,20.004
          149.164437,-35.3615726,20.0
          149.1644204,-35.3615725,19.999
          149.1644057,-35.3615731,20.039
          149.1643885,-35.3615727,20.008
          149.1643712,-35.3615722,19.996
          149.1643545,-35.3615723,19.996
          149.1643376,-35.3615717,19.998
          149.1643208,-35.3615716,20.0
          149.1643035,-35.3615715,20.002
          149.1642867,-35.3615714,20.002
        </coordinates>
      </LineString>
    </Placemark>
    <Placemark>
      <name>Denied Track (Lane 1)</name>
      <styleUrl>#denied_track</styleUrl>
      <LineString>
        <altitudeMode>relativeToGround</altitudeMode>
        <coordinates>
          149.1642706,-35.3615709,19.999
          149.1642552,-35.3615695,19.997
          149.1642413,-35.3615673,19.997
          149.1642261,-35.3615647,19.998
          149.1642095,-35.3615629,19.998
          149.1641927,-35.3615624,19.999
          149.1641782,-35.3615634,19.998
          149.1641577,-35.3615495,19.956
          149.1641405,-35.3615501,19.979
          149.1641166,-35.3615423,19.991
          149.164099,-35.3615515,19.994
          149.1640862,-35.3615697,19.975
          149.1640798,-35.3615759,19.965
          149.1640731,-35.3615806,19.96
          149.1640747,-35.3616067,19.995
          149.1640677,-35.3616093,19.992
          149.1640606,-35.3616109,19.983
          149.1640526,-35.3616116,19.977
          149.1640436,-35.3616094,19.98
          149.1640344,-35.3616066,19.989
          149.1640243,-35.3616019,20.002
          149.1640147,-35.3615975,20.013
          149.1640049,-35.3615925,20.019
          149.1639959,-35.3615894,20.02
          149.1639882,-35.3615894,20.023
          149.1639806,-35.3615908,20.026
          149.1639731,-35.361592,20.027
          149.1639646,-35.3615907,20.025
          149.1639552,-35.3615883,20.024
          149.163946,-35.3615854,20.022
          149.163937,-35.3615835,20.021
          149.1639284,-35.3615823,20.019
          149.16392,-35.3615815,20.018
          149.1638968,-35.3615767,20.015
          149.1638827,-35.3615747,20.011
          149.1638753,-35.3615752,20.009
          149.1638714,-35.3615774,20.009
          149.1638689,-35.3615815,20.009
          149.1638667,-35.361586,20.006
          149.163863,-35.3615885,20.003
          149.1638582,-35.36159,20.001
          149.1638526,-35.3615909,20.001
          149.1638454,-35.3615897,20.001
          149.1638303,-35.3615819,19.959
          149.1638212,-35.3615786,19.971
          149.1638133,-35.3615776,19.987
          149.1638065,-35.3615781,19.997
          149.1638005,-35.3615792,20.002
          149.1637935,-35.3615797,20.003
          149.1637852,-35.3615798,20.002
          149.1637771,-35.3615799,20.002
          149.1637692,-35.3615799,20.001
          149.1637616,-35.3615797,20.0
          149.1637545,-35.3615802,19.999
          149.1637468,-35.3615793,19.999
          149.1637396,-35.3615794,19.999
          149.1637332,-35.3615807,19.999
          149.1637262,-35.3615808,20.0
          149.1637255,-35.3615843,20.047
          149.1637173,-35.3615843,20.037
          149.1637088,-35.3615849,20.017
          149.1636776,-35.3615777,20.005
          149.1636277,-35.3615644,19.998
          149.1635779,-35.3615509,19.992
          149.1635495,-35.3615443,19.995
          149.1635376,-35.3615428,20.001
          149.1635189,-35.36154,20.006
          149.1634955,-35.3615357,20.006
          149.1634702,-35.3615305,20.005
          149.163437,-35.3615239,20.002
          149.1633981,-35.3615166,20.0
          149.1633626,-35.3615116,19.998
          149.1633296,-35.3615098,19.996
          149.1632975,-35.3615099,19.993
          149.163261,-35.3615103,19.99
          149.163233,-35.3615105,19.989
          149.163209,-35.3615157,19.988
          149.1631954,-35.3615212,19.987
          149.1631702,-35.3615311,19.986
          149.1631551,-35.3615391,19.985
          149.1631382,-35.3615527,19.983
          149.1631268,-35.3615654,19.981
          149.1631095,-35.3615822,19.98
          149.1630753,-35.3616027,19.929
          149.1630645,-35.3616141,19.943
          149.1630414,-35.3616207,19.964
          149.1630235,-35.3616239,19.979
          149.1629962,-35.3616312,19.99
          149.1629783,-35.361643,19.997
          149.1629663,-35.361662,19.997
          149.1629613,-35.3616753,19.993
          149.1629565,-35.3616906,19.99
          149.1629518,-35.3617125,19.989
          149.1629491,-35.3617356,19.987
          149.1629506,-35.3617434,19.989
          149.1629482,-35.3617549,19.992
          149.162946,-35.3617641,19.995
          149.162944,-35.361786,19.995
          149.1629326,-35.3618188,19.995
          149.1629141,-35.3618591,19.994
          149.1629025,-35.3618824,19.993
          149.1628993,-35.3618867,19.991
          149.1628938,-35.3618932,19.988
          149.1628741,-35.3619226,19.985
          149.1628608,-35.3619476,20.013
          149.1628492,-35.3619631,20.0
          149.1628493,-35.3619623,19.988
          149.1628519,-35.3619565,19.979
          149.1628543,-35.3619497,19.974
          149.1628545,-35.3619434,19.973
          149.1628608,-35.361933,19.972
          149.1628665,-35.3619226,19.972
          149.1628735,-35.3619113,19.975
          149.162878,-35.3619013,19.977
          149.1628795,-35.3618929,19.977
          149.1628798,-35.3618854,19.975
          149.1628818,-35.3618768,19.972
          149.1628852,-35.3618673,19.97
          149.1628868,-35.3618588,19.969
          149.1628883,-35.3618362,19.97
          149.1628819,-35.3618207,19.931
          149.1628833,-35.3618047,19.954
          149.1628827,-35.3617874,19.967
          149.1628783,-35.361773,19.966
          149.1628729,-35.3617599,19.96
          149.162865,-35.3617469,19.956
          149.1628602,-35.3617403,19.955
          149.1628558,-35.361734,19.954
          149.162853,-35.3617292,19.954
          149.1628478,-35.3617242,19.953
          149.1628431,-35.3617197,19.953
          149.1628367,-35.3617155,19.953
          149.1628312,-35.3617115,19.953
          149.1628275,-35.3617074,19.954
          149.1628247,-35.3617036,19.955
          149.1628221,-35.3616998,19.956
          149.1628198,-35.361696,19.958
          149.1628144,-35.3617452,19.992
          149.162757,-35.3618368,19.981
          149.1627312,-35.3618701,19.97
          149.1626969,-35.361918,19.967
          149.1626464,-35.3619954,19.97
          149.1625837,-35.3620954,19.972
          149.1625248,-35.3622023,19.972
          149.162475,-35.362317,19.97
          149.1624451,-35.3623798,19.97
          149.1623911,-35.3624673,19.974
          149.1623407,-35.3625427,19.978
          149.1622906,-35.3626154,19.981
          149.1622624,-35.3626519,19.986
          149.1622362,-35.3627143,19.993
          149.1622205,-35.3627731,20.001
          149.1622032,-35.36288,20.006
          149.1621931,-35.3629339,20.012
          149.1621878,-35.3629468,20.022
          149.1621579,-35.3629667,19.891
          149.1621451,-35.3630485,19.912
          149.1621508,-35.3631972,19.976
          149.1621581,-35.3632703,20.054
          149.1621652,-35.3633115,20.108
          149.1621675,-35.3633163,20.136
          149.1621747,-35.3633668,20.145
          149.1621867,-35.3634585,20.144
          149.1621924,-35.3635195,20.138
          149.1621879,-35.3636011,20.13
          149.1621804,-35.3636815,20.123
          149.1621736,-35.3637079,20.12
          149.1621677,-35.3637384,20.119
          149.1621616,-35.3637984,20.114
          149.1621552,-35.3638871,20.109
          149.1621428,-35.3639879,20.1
          149.1621296,-35.3640814,20.091
          149.1621189,-35.3641311,20.083
          149.162105,-35.3642064,20.075
          149.1620898,-35.3642934,20.067
          149.1620735,-35.3643784,20.06
          149.1620499,-35.3645139,20.055
          149.1620213,-35.3646265,20.048
          149.161993,-35.3647317,20.041
          149.1619744,-35.3648324,20.037
          149.1619624,-35.3648797,20.036
          149.1619501,-35.3649485,20.039
          149.1619387,-35.3649978,20.041
          149.1619231,-35.3650883,20.043
          149.161907,-35.3651775,20.044
          149.1619088,-35.3652043,20.15
          149.1618969,-35.3653089,20.143
          149.1618857,-35.3654064,20.095
          149.1618758,-35.3654469,20.037
          149.1618655,-35.3654621,20.01
          149.1618357,-35.3655969,20.007
          149.1618074,-35.3657115,20.012
          149.1617677,-35.3658516,20.029
          149.1617407,-35.3659303,20.039
        </coordinates>
      </LineString>
    </Placemark>
  </Document>
</kml>